STARLINK-1741           
1 46567U 20070AM  23117.63190251  .00027768  00000+0  18741-2 0  9990
2 46567  53.0519 177.0464 0001309  92.8060 267.3079 15.06431885141977
STARLINK-1747           
1 46569U 20070AP  23117.51395475  .00019939  00000+0  13534-2 0  9990
2 46569  53.0529 177.5675 0001729  72.7884 287.3294 15.06408185141659
STARLINK-1748           
1 46570U 20070AQ  23117.49441934  .00009468  00000+0  41850-3 0  9990
2 46570  53.0418 161.0355 0002169 280.7965  79.2786 15.22375708142186
STARLINK-1531           
1 46572U 20070AS  23117.94977485  .00021707  00000+0  14704-2 0  9994
2 46572  53.0513 195.6055 0001463  89.5155 270.6002 15.06432286141753
STARLINK-1650           
1 46573U 20070AT  23118.00001157  .00219751  00000+0  12165-2 0  9994
2 46573  53.0425 128.3162 0008189  30.9624  87.1248 15.78390660142696
STARLINK-1660           
1 46574U 20070AU  23117.51532113  .00026486  00000+0  17892-2 0  9994
2 46574  53.0528 182.5668 0001388  75.0815 285.0328 15.06422766141882
STARLINK-1675           
1 46575U 20070AV  23117.50473092  .00008836  00000+0  61154-3 0  9994
2 46575  53.0524 157.6109 0001487  69.9843 290.1306 15.06389474142236
STARLINK-1677           
1 46576U 20070AW  23117.57429689  .00025413  00000+0  17177-2 0  9990
2 46576  53.0529 182.3026 0001506  57.6871 302.4264 15.06423482141891
STARLINK-1682           
1 46577U 20070AX  23117.40474449  .00016847  00000+0  11462-2 0  9999
2 46577  53.0543 183.0631 0001276  83.8456 276.2678 15.06432138141864
STARLINK-1683           
1 46578U 20070AY  23117.45220325  .00020200  00000+0  13701-2 0  9993
2 46578  53.0510 167.8973 0001262  59.7541 300.3572 15.06426507142080
STARLINK-1705           
1 46579U 20070AZ  23117.58904403  .00026437  00000+0  17854-2 0  9995
2 46579  53.0527 182.2308 0001814  95.8342 264.2854 15.06433962141897
STARLINK-1708           
1 46580U 20070BA  23117.56693701  .00026943  00000+0  18191-2 0  9998
2 46580  53.0525 182.3300 0001311  63.6750 296.4374 15.06433556141903
STARLINK-1712           
1 46581U 20070BB  23117.59872589  .00021529  00000+0  14591-2 0  9990
2 46581  53.0529 177.1934 0001665  84.0876 276.0303 15.06417212141964
STARLINK-1728           
1 46582U 20070BC  23117.45128511  .00023936  00000+0  16194-2 0  9990
2 46582  53.0540 177.8463 0001372 100.7232 259.3911 15.06422231141943
STARLINK-1729           
1 46583U 20070BD  23117.56738202  .00024744  00000+0  16716-2 0  9995
2 46583  53.0522 197.3277 0001376  81.0304 279.0840 15.06458339141699
STARLINK-1732           
1 46584U 20070BE  23117.45498191  .00031979  00000+0  21543-2 0  9996
2 46584  53.0528 177.8345 0001704  68.9889 291.1282 15.06430262141940
STARLINK-1736           
1 46585U 20070BF  23117.67149618  .00021538  00000+0  14597-2 0  9999
2 46585  53.0518 176.8548 0001523  76.9781 283.1378 15.06417889141670
STARLINK-1737           
1 46586U 20070BG  23117.66139835  .00013130  00000+0  89849-3 0  9991
2 46586  53.0533 176.9104 0000857 144.1597 215.9450 15.06408141141652
STARLINK-1746           
1 46588U 20070BJ  23117.44392368  .00021485  00000+0  14566-2 0  9996
2 46588  53.0528 177.8822 0001600  75.8154 284.3013 15.06407403141948
STARLINK-1749           
1 46589U 20070BK  23117.43655094  .00027595  00000+0  18631-2 0  9999
2 46589  53.0519 177.9233 0000721  65.6138 294.4926 15.06422388141931
STARLINK-1755           
1 46591U 20070BM  23117.49183300  .00022767  00000+0  15412-2 0  9994
2 46591  53.0514 177.6734 0001223  82.6626 277.4502 15.06427954141004
FLOCK 4V-18             
1 46597U 20061BG  23117.15836551  .00068094  00000+0  18293-2 0  9999
2 46597  97.3607 190.1819 0006251 107.4903 252.7026 15.37653747141673
FLOCK 4V-19             
1 46609U 20061BH  23117.76906305  .00061364  00000+0  16404-2 0  9990
2 46609  97.3469 189.7062 0003060 107.7483 252.4096 15.37851715141330
GAOFEN 13-01            
1 46610U 20071A   23114.89285654 -.00000366  00000+0  00000+0 0  9999
2 46610   0.1228  84.2026 0003526  27.3533 180.3110  1.00266455  9375
FLOCK 4V-20             
1 46612U 20061BJ  23117.20416799  .00015640  00000+0  57320-3 0  9995
2 46612  97.3630 188.7820 0007560 111.6421 248.5625 15.28056662140667
STARLINK-1715           
1 46671U 20073B   23117.78577943  .00032688  00000+0  21981-2 0  9999
2 46671  53.0533 266.5915 0001087  58.9274 301.1822 15.06486399139742
STARLINK-1716           
1 46672U 20073C   23117.80280215  .00030897  00000+0  20796-2 0  9999
2 46672  53.0535 261.2735 0001411  87.0806 273.0344 15.06479367139824
STARLINK-1717           
1 46673U 20073D   23117.45314126  .00025957  00000+0  17531-2 0  9994
2 46673  53.0546 277.9715 0000631  90.3363 269.7698 15.06442345139557
STARLINK-1718           
1 46674U 20073E   23117.82862210  .00033257  00000+0  22376-2 0  9993
2 46674  53.0575 261.1643 0001341 110.0329 250.0804 15.06457479139822
STARLINK-1720           
1 46675U 20073F   23117.42686670  .00011739  00000+0  80512-3 0  9992
2 46675  53.0538 262.9647 0001437  71.7691 288.3454 15.06424994139760
STARLINK-1766           
1 46677U 20073H   23117.82123243  .00041590  00000+0  27877-2 0  9992
2 46677  53.0555 261.1908 0001567  95.9600 264.1567 15.06491178139826
STARLINK-1773           
1 46679U 20073K   23117.76043409  .00025947  00000+0  17521-2 0  9995
2 46679  53.0545 241.4682 0001252  88.2956 271.8176 15.06448894140108
STARLINK-1774           
1 46680U 20073L   23117.82908335  .00064465  00000+0  42984-2 0  9991
2 46680  53.0540 276.1547 0000162 116.0978 244.0028 15.06476974139615
STARLINK-1775           
1 46681U 20073M   23117.46785769  .00025203  00000+0  17022-2 0  9998
2 46681  53.0543 277.7767 0001095  91.8906 268.2209 15.06456526139550
STARLINK-1776           
1 46682U 20073N   23117.56001089  .00006671  00000+0  46620-3 0  9991
2 46682  53.0530 277.3621 0001136  98.1372 261.9746 15.06408455139098
STARLINK-1780           
1 46684U 20073Q   23117.81387270  .00031706  00000+0  21339-2 0  9996
2 46684  53.0539 261.2254 0001363  88.5528 271.5617 15.06469375139824
STARLINK-1781           
1 46685U 20073R   23117.53695758  .00025525  00000+0  17244-2 0  9991
2 46685  53.0528 277.4623 0001155  98.3124 261.7996 15.06440852139080
STARLINK-1783           
1 46686U 20073S   23117.84654649  .00026455  00000+0  17847-2 0  9992
2 46686  53.0543 276.0295 0001257  82.0620 278.0511 15.06473870139611
STARLINK-1784           
1 46687U 20073T   23117.83781671  .00020821  00000+0  14100-2 0  9998
2 46687  53.0535 241.1177 0001845  66.8098 293.3085 15.06467033140103
STARLINK-1788           
1 46689U 20073V   23117.53051363  .00030748  00000+0  20703-2 0  9990
2 46689  53.0536 277.4997 0001237  82.2847 277.8283 15.06468251139565
STARLINK-1789           
1 46690U 20073W   23117.39830747  .00029263  00000+0  19739-2 0  9994
2 46690  53.0533 253.0894 0001407  98.2633 261.8515 15.06426255139894
STARLINK-1790           
1 46691U 20073X   23117.72910884  .00027176  00000+0  18340-2 0  9991
2 46691  53.0531 261.6064 0001109  91.8662 268.2454 15.06446989139807
STARLINK-1791           
1 46692U 20073Y   23117.44944029  .00030435  00000+0  20507-2 0  9999
2 46692  53.0549 277.8614 0001238  95.3800 264.7330 15.06446857139070
STARLINK-1792           
1 46693U 20073Z   23117.13565503  .00000339  00000+0  41678-4 0  9996
2 46693  53.0551 264.2672 0001280  75.0460 285.0670 15.06403351139707
STARLINK-1793           
1 46694U 20073AA  23117.82307903  .00034036  00000+0  22876-2 0  9999
2 46694  53.0537 241.1859 0001845  91.7407 268.3793 15.06484851140117
STARLINK-1795           
1 46696U 20073AC  23117.50978214  .00036973  00000+0  24831-2 0  9990
2 46696  53.0529 242.5892 0001741  96.2145 263.9042 15.06473264139578
STARLINK-1797           
1 46698U 20073AE  23117.43328646  .00020731  00000+0  14050-2 0  9999
2 46698  53.0537 262.9233 0001307  88.8946 271.2192 15.06440746139283
STARLINK-1799           
1 46699U 20073AF  23117.37158157  .00024466  00000+0  16542-2 0  9998
2 46699  53.0550 263.2108 0001243  95.7301 264.3830 15.06433141139277
STARLINK-1800           
1 46700U 20073AG  23117.77379197  .00029306  00000+0  19750-2 0  9996
2 46700  53.0531 276.4043 0000786  95.3728 264.7351 15.06458647139600
STARLINK-1801           
1 46701U 20073AH  23117.40840887  .00011409  00000+0  78277-3 0  9991
2 46701  53.0540 263.0440 0001246  81.4771 278.6359 15.06437353139760
STARLINK-1802           
1 46702U 20073AJ  23117.75306323  .00016404  00000+0  11165-2 0  9994
2 46702  53.0546 241.5004 0002070  95.6901 264.4324 15.06435297140102
STARLINK-1803           
1 46703U 20073AK  23117.45267147  .00025117  00000+0  16975-2 0  9997
2 46703  53.0521 262.8488 0001027  83.1928 276.9178 15.06435425139285
STARLINK-1804           
1 46704U 20073AL  23117.69777060  .00030409  00000+0  20482-2 0  9992
2 46704  53.0538 241.7466 0001573  76.9408 283.1756 15.06461000140096
STARLINK-1805           
1 46705U 20073AM  23117.44574612  .00022657  00000+0  15330-2 0  9996
2 46705  53.0536 277.8766 0001227  94.2273 265.8856 15.06449747139075
STARLINK-1807           
1 46706U 20073AN  23117.48582603  .00029216  00000+0  19681-2 0  9991
2 46706  53.0527 262.6980 0001879  91.2503 268.8701 15.06476371139774
STARLINK-1808           
1 46707U 20073AP  23117.80834127  .00024561  00000+0  16591-2 0  9994
2 46707  53.0509 241.2480 0002230  84.7090 275.4154 15.06464751140118
STARLINK-1810           
1 46709U 20073AR  23117.55264532  .00022623  00000+0  15305-2 0  9994
2 46709  53.0536 277.5232 0000955  89.4197 270.6901 15.06456341139086
STARLINK-1811           
1 46710U 20073AS  23117.43841281  .00025489  00000+0  17233-2 0  9990
2 46710  53.0534 277.9098 0001388  96.6041 263.5106 15.06412961139559
STARLINK-1813           
1 46711U 20073AT  23117.81013566  .00031458  00000+0  21144-2 0  9999
2 46711  53.0539 261.2415 0001175  79.0513 281.0609 15.06522952139800
